IRIDIUM 144             
1 43249U 18030A   25032.36240051  .00001096  00000+0  38425-3 0  9997
2 43249  86.4012 139.7920 0002229  97.3492 262.7958 14.34215371358359
IRIDIUM 149             
1 43250U 18030B   25032.36873730  .00000728  00000+0  25278-3 0  9998
2 43250  86.4011 139.7623 0002184  91.9361 268.2085 14.34222654358371
IRIDIUM 157             
1 43251U 18030C   25032.73661550  .00000214  00000+0  69211-4 0  9991
2 43251  86.4009 139.6502 0001809  94.1073 266.0330 14.34212852358404
IRIDIUM 140             
1 43252U 18030D   25032.75564094  .00000567  00000+0  19530-3 0  9998
2 43252  86.4012 139.6569 0002169  97.8054 262.3388 14.34215394358463
IRIDIUM 145             
1 43253U 18030E   25032.74295736  .00000477  00000+0  16327-3 0  9993
2 43253  86.4009 139.6346 0002501  92.7956 267.3526 14.34215614358394
IRIDIUM 146             
1 43254U 18030F   25032.37508687  .00000485  00000+0  16627-3 0  9997
2 43254  86.4010 139.8026 0002517  96.2660 263.8823 14.34215280358358
IRIDIUM 148             
1 43255U 18030G   25032.76198406  .00000571  00000+0  19686-3 0  9999
2 43255  86.4013 139.6764 0002200  91.5978 268.5470 14.34215117358447
IRIDIUM 142             
1 43256U 18030H   25032.73026674  .00000440  00000+0  15022-3 0  9999
2 43256  86.4008 139.5969 0002477  91.7932 268.3547 14.34213054358403
